*******************************************************************************
Ephemeris / WWW_USER Mon Jul 15 19:07:39 2024 Pasadena, USA      / Horizons    
*******************************************************************************
Target body name: (2017 SN16)                     {source: JPL#20}
Center body name: Earth (399)                     {source: DE441}
Center-site name: Gemini South Obs., Cerro Pachon
*******************************************************************************
Start time      : A.D. 2018-Dec-11 23:47:00.0000 UT      
Stop  time      : A.D. 2018-Dec-12 09:25:00.0000 UT      
Step-size       : 1 minutes
*******************************************************************************
Target pole/equ : undefined
Target radii    : undefined                                                    
Center geodetic : 289.2634, -30.2406227, 2.71233  {E-lon(deg),Lat(deg),Alt(km)}
Center cylindric: 289.2634,5517.21435,-3194.81213 {E-lon(deg),Dxy(km),Dz(km)}
Center pole/equ : ITRF93                          {East-longitude positive}
Center radii    : 6378.137, 6378.137, 6356.752 km {Equator_a, b, pole_c}       
Target primary  : Sun
Vis. interferer : MOON (R_eq= 1737.400) km        {source: DE441}
Rel. light bend : Sun                             {source: DE441}
Rel. lght bnd GM: 1.3271E+11 km^3/s^2                                          
Small-body perts: Yes                             {source: SB441-N16}
Atmos refraction: NO (AIRLESS)
RA format       : HMS
Time format     : CAL 
Calendar mode   : Mixed Julian/Gregorian
RTS-only print  : NO       
EOP file        : eop.240715.p241008                                           
EOP coverage    : DATA-BASED 1962-JAN-20 TO 2024-JUL-15. PREDICTS-> 2024-OCT-07
Units conversion: 1 au= 149597870.700 km, c= 299792.458 km/s, 1 day= 86400.0 s 
Table cut-offs 1: Elevation (-90.0deg=NO ),Airmass (>38.000=NO), Daylight (YES)
Table cut-offs 2: Solar elongation (  0.0,180.0=NO ),Local Hour Angle( 0.0=NO )
Table cut-offs 3: RA/DEC angular rate (     0.0=NO )                           
*******************************************************************************
Initial IAU76/J2000 heliocentric ecliptic osculating elements (au, days, deg.):
  EPOCH=  2458305.5 ! 2018-Jul-06.00 (TDB)         Residual RMS= .23751        
   EC= .1454884975659386   QR= .8682464985612274   TP= 2458145.5722438502      
   OM= 2.759719470837934   W=  137.1017088998531   IN= 13.38264682844635       
  Equivalent ICRF heliocentric cartesian coordinates (au, au/d):
   X= 5.756755401261899E-01  Y=-7.953424559592890E-01  Z=-6.031561894536019E-01
  VX= 1.332076113263395E-02 VY= 5.454663564585547E-03 VZ= 3.896229736425836E-03
Asteroid physical parameters (km, seconds, rotational period in hours):        
   GM= n.a.                RAD= n.a.               ROTPER= n.a.                
   H= 23.34                G= .150                 B-V= n.a.                   
                           ALBEDO= n.a.            STYP= n.a.                  
*******************************************************************************
 Date__(UT)__HR:MN     R.A._________(ICRF)_________DEC
******************************************************
$$SOE
 2018-Dec-12 07:59 A   20 16 51.529134 +36 08 37.65608
 2018-Dec-12 08:00 A   20 16 51.504376 +36 08 38.23349
 2018-Dec-12 08:01 A   20 16 51.479611 +36 08 38.81122
 2018-Dec-12 08:02 A   20 16 51.454841 +36 08 39.38928
 2018-Dec-12 08:03 A   20 16 51.430064 +36 08 39.96767
 2018-Dec-12 08:04 A   20 16 51.405281 +36 08 40.54638
 2018-Dec-12 08:05 A   20 16 51.380491 +36 08 41.12541
 2018-Dec-12 08:06 A   20 16 51.355694 +36 08 41.70477
 2018-Dec-12 08:07 A   20 16 51.330891 +36 08 42.28445
 2018-Dec-12 08:08 A   20 16 51.306080 +36 08 42.86446
 2018-Dec-12 08:09 A   20 16 51.281262 +36 08 43.44479
 2018-Dec-12 08:10 A   20 16 51.256436 +36 08 44.02544
 2018-Dec-12 08:11 A   20 16 51.231602 +36 08 44.60642
 2018-Dec-12 08:12 A   20 16 51.206761 +36 08 45.18772
 2018-Dec-12 08:13 A   20 16 51.181911 +36 08 45.76934
 2018-Dec-12 08:14 A   20 16 51.157052 +36 08 46.35129
 2018-Dec-12 08:15 A   20 16 51.132185 +36 08 46.93356
 2018-Dec-12 08:16 A   20 16 51.107309 +36 08 47.51615
 2018-Dec-12 08:17 A   20 16 51.082424 +36 08 48.09906
 2018-Dec-12 08:18 A   20 16 51.057530 +36 08 48.68229
 2018-Dec-12 08:19 A   20 16 51.032626 +36 08 49.26585
 2018-Dec-12 08:20 A   20 16 51.007713 +36 08 49.84973
 2018-Dec-12 08:21 A   20 16 50.982789 +36 08 50.43392
 2018-Dec-12 08:22 A   20 16 50.957856 +36 08 51.01844
 2018-Dec-12 08:23 A   20 16 50.932912 +36 08 51.60328
 2018-Dec-12 08:24 A   20 16 50.907958 +36 08 52.18844
 2018-Dec-12 08:25 A   20 16 50.882993 +36 08 52.77392
 2018-Dec-12 08:26 A   20 16 50.858017 +36 08 53.35972
 2018-Dec-12 08:27 A   20 16 50.833030 +36 08 53.94584
 2018-Dec-12 08:28 A   20 16 50.808032 +36 08 54.53228
 2018-Dec-12 08:29 A   20 16 50.783022 +36 08 55.11903
 2018-Dec-12 08:30 A   20 16 50.758001 +36 08 55.70611
 2018-Dec-12 08:31 A   20 16 50.732967 +36 08 56.29350
 2018-Dec-12 08:32 A   20 16 50.707922 +36 08 56.88121
 2018-Dec-12 08:33 A   20 16 50.682864 +36 08 57.46923
 2018-Dec-12 08:34 N   20 16 50.657794 +36 08 58.05758
 2018-Dec-12 08:35 N   20 16 50.632711 +36 08 58.64624
 2018-Dec-12 08:36 N   20 16 50.607615 +36 08 59.23521
 2018-Dec-12 08:37 N   20 16 50.582505 +36 08 59.82451
 2018-Dec-12 08:38 N   20 16 50.557383 +36 09 00.41411
 2018-Dec-12 08:39 N   20 16 50.532247 +36 09 01.00404
 2018-Dec-12 08:40 N   20 16 50.507097 +36 09 01.59427
 2018-Dec-12 08:41 N   20 16 50.481934 +36 09 02.18483
 2018-Dec-12 08:42 N   20 16 50.456756 +36 09 02.77569
 2018-Dec-12 08:43 N   20 16 50.431564 +36 09 03.36687
 2018-Dec-12 08:44 N   20 16 50.406357 +36 09 03.95836
 2018-Dec-12 08:45 N   20 16 50.381135 +36 09 04.55017
 2018-Dec-12 08:46 N   20 16 50.355899 +36 09 05.14228
 2018-Dec-12 08:47 N   20 16 50.330648 +36 09 05.73471
 2018-Dec-12 08:48 N   20 16 50.305381 +36 09 06.32745
 2018-Dec-12 08:49 N   20 16 50.280099 +36 09 06.92050
 2018-Dec-12 08:50 N   20 16 50.254801 +36 09 07.51386
 2018-Dec-12 08:51 N   20 16 50.229487 +36 09 08.10753
 2018-Dec-12 08:52 N   20 16 50.204157 +36 09 08.70151
 2018-Dec-12 08:53 N   20 16 50.178810 +36 09 09.29580
 2018-Dec-12 08:54 N   20 16 50.153447 +36 09 09.89040
 2018-Dec-12 08:55 N   20 16 50.128068 +36 09 10.48531
 2018-Dec-12 08:56 N   20 16 50.102671 +36 09 11.08052
 2018-Dec-12 08:57 N   20 16 50.077258 +36 09 11.67604
 2018-Dec-12 08:58 N   20 16 50.051827 +36 09 12.27187
 2018-Dec-12 08:59 N   20 16 50.026378 +36 09 12.86800
 2018-Dec-12 09:00 N   20 16 50.000912 +36 09 13.46444
 2018-Dec-12 09:01 N   20 16 49.975428 +36 09 14.06119
 2018-Dec-12 09:02 N   20 16 49.949926 +36 09 14.65823
 2018-Dec-12 09:03 N   20 16 49.924406 +36 09 15.25559
 2018-Dec-12 09:04 N   20 16 49.898867 +36 09 15.85324
 2018-Dec-12 09:05 N   20 16 49.873310 +36 09 16.45120
 2018-Dec-12 09:06 N   20 16 49.847733 +36 09 17.04946
 2018-Dec-12 09:07 N   20 16 49.822138 +36 09 17.64802
 2018-Dec-12 09:08 C   20 16 49.796524 +36 09 18.24689
 2018-Dec-12 09:09 C   20 16 49.770890 +36 09 18.84605
 2018-Dec-12 09:10 C   20 16 49.745236 +36 09 19.44552
 2018-Dec-12 09:11 C   20 16 49.719563 +36 09 20.04528
 2018-Dec-12 09:12 C   20 16 49.693869 +36 09 20.64534
 2018-Dec-12 09:13 C   20 16 49.668156 +36 09 21.24571
 2018-Dec-12 09:14 C   20 16 49.642422 +36 09 21.84637
 2018-Dec-12 09:15 C   20 16 49.616667 +36 09 22.44732
 2018-Dec-12 09:16 C   20 16 49.590892 +36 09 23.04857
 2018-Dec-12 09:17 C   20 16 49.565096 +36 09 23.65012
 2018-Dec-12 09:18 C   20 16 49.539278 +36 09 24.25197
 2018-Dec-12 09:19 C   20 16 49.513440 +36 09 24.85410
 2018-Dec-12 09:20 C   20 16 49.487580 +36 09 25.45654
 2018-Dec-12 09:21 C   20 16 49.461698 +36 09 26.05926
 2018-Dec-12 09:22 C   20 16 49.435794 +36 09 26.66228
 2018-Dec-12 09:23 C   20 16 49.409868 +36 09 27.26559
 2018-Dec-12 09:24 C   20 16 49.383920 +36 09 27.86919
 2018-Dec-12 09:25 C   20 16 49.357950 +36 09 28.47309
